GLOBALSTAR M069         
1 31573U 07020C   26157.49244788 -.00000061  00000+0  29152-3 0  9994
2 31573  52.0043 282.3964 0002540 126.1471 310.8727 12.23470901877494
GLOBALSTAR M072         
1 31574U 07020D   26157.21974598 -.00000084  00000+0  38674-5 0  9990
2 31574  51.9905 129.4431 0001360 301.6636  71.7087 11.91658406873672
GLOBALSTAR M066         
1 32265U 07048C   26157.54004561 -.00000084  00000+0  90037-4 0  9998
2 32265  51.9586  88.4761 0005282  21.1571 150.0426 12.30389109858917
GLOBALSTAR M079         
1 37188U 10054A   26157.27747919 -.00000103  00000+0  24013-5 0  9993
2 37188  52.0012 141.8800 0000456 355.4126  17.7958 12.62265958721173
GLOBALSTAR M074         
1 37189U 10054B   26157.22454914 -.00000111  00000+0 -42036-4 0  9993
2 37189  51.9989 141.3079 0000300  45.8600 326.8443 12.62268396721771
GLOBALSTAR M076         
1 37190U 10054C   26157.25106341 -.00000102  00000+0  82816-5 0  9996
2 37190  52.0013 141.4291 0000509  29.8173 343.7669 12.62261925721496
GLOBALSTAR M077         
1 37191U 10054D   26157.41232146 -.00000081  00000+0 -57774-4 0  9999
2 37191  51.9935 206.6453 0002915 153.1974 231.7362 11.67547621719885
GLOBALSTAR M075         
1 37192U 10054E   26157.34361456 -.00000113  00000+0 -52780-4 0  9997
2 37192  51.9922 183.2099 0000102 158.8522 215.1696 12.62267320720570
GLOBALSTAR M073         
1 37193U 10054F   26157.61600763 -.00000097  00000+0  40150-4 0  9993
2 37193  52.0054  96.4701 0000712  27.0443 144.0911 12.62262094722597
GLOBALSTAR M083         
1 37739U 11033A   26157.47103065 -.00000091  00000+0  70736-4 0  9991
2 37739  51.9872  45.1551 0000798  50.1115 123.3031 12.62262908691592
GLOBALSTAR M088         
1 37740U 11033B   26157.20707867 -.00000087  00000+0  91706-4 0  9999
2 37740  52.0229 312.3620 0000864 109.6577  61.9379 12.62268513687106
GLOBALSTAR M091         
1 37741U 11033C   26157.58098396 -.00000078  00000+0  14224-3 0  9990
2 37741  52.0005 274.2047 0000541 129.4481 243.1715 12.62263722687941
GLOBALSTAR M085         
1 37742U 11033D   26156.96925399 -.00000087  00000+0  93746-4 0  9991
2 37742  52.0117 227.3498 0000250 171.4713   0.1065 12.62263874688372
GLOBALSTAR M081         
1 37743U 11033E   26157.53596262 -.00000087  00000+0  94016-4 0  9990
2 37743  51.9947 228.0736 0000312 127.8699 339.7375 12.62264843688598
GLOBALSTAR M089         
1 37744U 11033F   26157.31690269 -.00000100  00000+0  20958-4 0  9999
2 37744  51.9904 182.9012 0000375 105.5886 266.8710 12.62266963689417
GLOBALSTAR M084         
1 38040U 11080A   26157.44413154 -.00000097  00000+0  37372-4 0  9994
2 38040  52.0024  49.9873 0000998  69.9060 100.9321 12.62267437667405
GLOBALSTAR M080         
1 38041U 11080B   26157.41563197 -.00000091  00000+0  72696-4 0  9997
2 38041  52.0074  51.7883 0000263  72.2088  99.0446 12.62269239667526
GLOBALSTAR M082         
1 38042U 11080C   26157.35171983 -.00000089  00000+0  81172-4 0  9995
2 38042  52.0097   7.4832 0000534  84.8237  86.0052 12.62269876668224
GLOBALSTAR M092         
1 38043U 11080D   26157.56303222 -.00000100  00000+0  19293-4 0  9991
2 38043  52.0079  97.2355 0000497  49.0852 121.4536 12.62266744666709
GLOBALSTAR M090         
1 38044U 11080E   26157.29920507 -.00000094  00000+0  55482-4 0  9995
2 38044  52.0144   1.5954 0000786  78.3121  92.7046 12.62268941668339
GLOBALSTAR M086         
1 38045U 11080F   26157.32120316 -.00000102  00000+0  96306-5 0  9991
2 38045  51.9917   1.4763 0001600  49.8577 121.4159 12.62286377668289
GLOBALSTAR M097         
1 39072U 13005A   26157.47286759 -.00000083  00000+0  11823-3 0  9998
2 39072  52.0078 275.9512 0000453 121.6041 238.4870 12.62247311615556
GLOBALSTAR M093         
1 39073U 13005B   26157.60460671 -.00000076  00000+0  15716-3 0  9998
2 39073  52.0112 268.8929 0000349 106.5821 253.5085 12.62265696615520
GLOBALSTAR M094         
1 39074U 13005C   26157.36698147 -.00000102  00000+0  11326-4 0  9997
2 39074  51.9932 183.7443 0000143 320.8840  39.2017 12.62268546617106
GLOBALSTAR M096         
1 39075U 13005D   26157.45961189 -.00000088  00000+0  86722-4 0  9992
2 39075  52.0064 232.2553 0000227 157.7685 202.3192 12.62265353616035
GLOBALSTAR M078         
1 39076U 13005E   26157.19502334 -.00000113  00000+0 -53141-4 0  9996
2 39076  51.9891 317.0831 0000656 189.4412 170.6442 12.62259894614620
GLOBALSTAR M095         
1 39077U 13005F   26157.14262017 -.00000092  00000+0  65621-4 0  9994
2 39077  52.0093 314.8319 0000408 122.5720 237.5186 12.62263327614475
GLOBALSTAR M087         
1 52888U 22064A   26157.55183191 -.00000091  00000+0  71953-4 0  9998
2 52888  51.9992  94.8304 0000525  14.8158 345.2724 12.62268877189795
