OBJECT_NAME,OBJECT_ID,EPOCH,MEAN_MOTION,ECCENTRICITY,INCLINATION,RA_OF_ASC_NODE,ARG_OF_PERICENTER,MEAN_ANOMALY,EPHEMERIS_TYPE,CLASSIFICATION_TYPE,NORAD_CAT_ID,ELEMENT_SET_NO,REV_AT_EPOCH,BSTAR,MEAN_MOTION_DOT,MEAN_MOTION_DDOT
GLOBALSTAR M069,2007-020C,2026-06-06T11:49:07.496832,12.23470901,.00025403,52.0043,282.3964,126.1471,310.8727,0,U,31573,999,87749,.29151574E-3,-.61E-6,0
GLOBALSTAR M072,2007-020D,2026-06-06T05:16:26.052672,11.91658406,.00013602,51.9905,129.4431,301.6636,71.7087,0,U,31574,999,87367,.38674E-5,-.84E-6,0
GLOBALSTAR M066,2007-048C,2026-06-06T12:57:39.940704,12.30389109,.00052829,51.9586,88.4761,21.1571,150.0426,0,U,32265,999,85891,.9003715E-4,-.84E-6,0
GLOBALSTAR M079,2010-054A,2026-06-06T06:39:34.202016,12.62265958,.00004563,52.0012,141.8800,355.4126,17.7958,0,U,37188,999,72117,.2401283E-5,-.103E-5,0
GLOBALSTAR M074,2010-054B,2026-06-06T05:23:21.045696,12.62268396,.00003003,51.9989,141.3079,45.8600,326.8443,0,U,37189,999,72177,-.42036298E-4,-.111E-5,0
GLOBALSTAR M076,2010-054C,2026-06-06T06:01:31.878624,12.62261925,.00005095,52.0013,141.4291,29.8173,343.7669,0,U,37190,999,72149,.8281558E-5,-.102E-5,0
GLOBALSTAR M077,2010-054D,2026-06-06T09:53:44.574144,11.67547621,.00029153,51.9935,206.6453,153.1974,231.7362,0,U,37191,999,71988,-.57774455E-4,-.81E-6,0
GLOBALSTAR M075,2010-054E,2026-06-06T08:14:48.297984,12.62267320,.00001023,51.9922,183.2099,158.8522,215.1696,0,U,37192,999,72057,-.52779514E-4,-.113E-5,0
GLOBALSTAR M073,2010-054F,2026-06-06T14:47:03.059232,12.62262094,.00007122,52.0054,96.4701,27.0443,144.0911,0,U,37193,999,72259,.40149653E-4,-.97E-6,0
GLOBALSTAR M083,2011-033A,2026-06-06T11:18:17.048160,12.62262908,.00007981,51.9872,45.1551,50.1115,123.3031,0,U,37739,999,69159,.70736236E-4,-.91E-6,0
GLOBALSTAR M088,2011-033B,2026-06-06T04:58:11.597088,12.62268513,.00008648,52.0229,312.3620,109.6577,61.9379,0,U,37740,999,68710,.9170641E-4,-.87E-6,0
GLOBALSTAR M091,2011-033C,2026-06-06T13:56:37.014144,12.62263722,.00005417,52.0005,274.2047,129.4481,243.1715,0,U,37741,999,68794,.14224352E-3,-.78E-6,0
GLOBALSTAR M085,2011-033D,2026-06-05T23:15:43.544736,12.62263874,.00002507,52.0117,227.3498,171.4713,0.1065,0,U,37742,999,68837,.9374552E-4,-.87E-6,0
GLOBALSTAR M081,2011-033E,2026-06-06T12:51:47.170368,12.62264843,.00003126,51.9947,228.0736,127.8699,339.7375,0,U,37743,999,68859,.94015772E-4,-.87E-6,0
GLOBALSTAR M089,2011-033F,2026-06-06T07:36:20.392416,12.62266963,.0000375,51.9904,182.9012,105.5886,266.8710,0,U,37744,999,68941,.20957551E-4,-.1E-5,0
GLOBALSTAR M084,2011-080A,2026-06-06T10:39:32.965056,12.62267437,.00009987,52.0024,49.9873,69.9060,100.9321,0,U,38040,999,66740,.37371886E-4,-.97E-6,0
GLOBALSTAR M080,2011-080B,2026-06-06T09:58:30.602208,12.62269239,.00002631,52.0074,51.7883,72.2088,99.0446,0,U,38041,999,66752,.72696167E-4,-.91E-6,0
GLOBALSTAR M082,2011-080C,2026-06-06T08:26:28.593312,12.62269876,.00005344,52.0097,7.4832,84.8237,86.0052,0,U,38042,999,66822,.81171744E-4,-.89E-6,0
GLOBALSTAR M092,2011-080D,2026-06-06T13:30:45.983808,12.62266744,.00004976,52.0079,97.2355,49.0852,121.4536,0,U,38043,999,66670,.19292691E-4,-.1E-5,0
GLOBALSTAR M090,2011-080E,2026-06-06T07:10:51.318048,12.62268941,.00007869,52.0144,1.5954,78.3121,92.7046,0,U,38044,999,66833,.5548153E-4,-.94E-6,0
GLOBALSTAR M086,2011-080F,2026-06-06T07:42:31.953024,12.62286377,.00016003,51.9917,1.4763,49.8577,121.4159,0,U,38045,999,66828,.9630552E-5,-.102E-5,0
GLOBALSTAR M097,2013-005A,2026-06-06T11:20:55.759776,12.62247311,.00004533,52.0078,275.9512,121.6041,238.4870,0,U,39072,999,61555,.11823256E-3,-.83E-6,0
GLOBALSTAR M093,2013-005B,2026-06-06T14:30:38.019744,12.62265696,.00003491,52.0112,268.8929,106.5821,253.5085,0,U,39073,999,61552,.15716399E-3,-.76E-6,0
GLOBALSTAR M094,2013-005C,2026-06-06T08:48:27.199008,12.62268546,.00001431,51.9932,183.7443,320.8840,39.2017,0,U,39074,999,61710,.11326382E-4,-.102E-5,0
GLOBALSTAR M096,2013-005D,2026-06-06T11:01:50.467296,12.62265353,.00002276,52.0064,232.2553,157.7685,202.3192,0,U,39075,999,61603,.867216E-4,-.88E-6,0
GLOBALSTAR M078,2013-005E,2026-06-06T04:40:50.016576,12.62259894,.00006561,51.9891,317.0831,189.4412,170.6442,0,U,39076,999,61462,-.53140521E-4,-.113E-5,0
GLOBALSTAR M095,2013-005F,2026-06-06T03:25:22.382688,12.62263327,.0000408,52.0093,314.8319,122.5720,237.5186,0,U,39077,999,61447,.65621E-4,-.92E-6,0
GLOBALSTAR M087,2022-064A,2026-06-06T13:14:38.277024,12.62268877,.00005253,51.9992,94.8304,14.8158,345.2724,0,U,52888,999,18979,.7195286E-4,-.91E-6,0
